{"spkid": "50170244", "covariance": {"data": [["3.256250588942906E-14", "-3.574180284992969E-14", "-4.972250313416177E-12", "5.101027194095019E-12", "-1.248052128081845E-11", "4.474233959438504E-12"], ["-3.574180284992969E-14", "3.926943041374018E-14", "5.738167526823941E-12", "-5.613479710575887E-12", "1.397695286485296E-11", "-4.933611718560856E-12"], ["-4.972250313416177E-12", "5.738167526823941E-12", "5.84161521682457E-9", "-6.955147925478556E-10", "6.683617222407033E-9", "-1.011711960186326E-9"], ["5.101027194095019E-12", "-5.613479710575887E-12", "-6.955147925478556E-10", "1.082685935724131E-9", "-2.154233039719537E-9", "7.744782777610695E-10"], ["-1.248052128081845E-11", "1.397695286485296E-11", "6.683617222407033E-9", "-2.154233039719537E-9", "9.550606480027765E-9", "-2.098040617027899E-9"], ["4.474233959438504E-12", "-4.933611718560856E-12", "-1.011711960186326E-9", "7.744782777610695E-10", "-2.098040617027899E-9", "6.942289313777671E-10"]], "elements": [{"units": null, "value": ".02089902670564158", "title": "eccentricity", "sigma": 1.80450840644839e-07, "name": "e", "label": "e"}, {"label": "q", "name": "q", "sigma": 1.98165159434599e-07, "units": "au", "title": "perihelion distance", "value": ".9767909261899289"}, {"label": "tp", "units": "TDB", "title": "time of perihelion passage", "value": "2453281.166288508128", "name": "tp", "sigma": 7.64304600066267e-05}, {"units": "deg", "value": "268.4224399910382", "title": "longitude of the ascending node", "sigma": 3.29041932848099e-05, "name": "om", "label": "node"}, {"label": "peri", "units": "deg", "title": "argument of perihelion", "value": "102.7971725988401", "sigma": 9.77272044009638e-05, "name": "w"}, {"units": "deg", "title": "inclination", "value": "4.263040418988599", "name": "i", "sigma": 2.63482244445004e-05, "label": "i"}], "labels": ["e", "q", "tp", "node", "peri", "i"], "epoch": "2453260.5"}, "elements": [{"label": "e", "name": "e", "sigma": "2.1015E-7", "units": null, "title": "eccentricity", "value": ".01392056597965233"}, {"units": "au", "value": ".9888410497250942", "title": "semi-major axis", "sigma": "3.5148E-8", "name": "a", "label": "a"}, {"label": "q", "sigma": "1.736E-7", "name": "q", "units": "au", "title": "perihelion distance", "value": ".9750758226490074"}, {"label": "i", "title": "inclination; angle with respect to x-y ecliptic plane", "value": "4.320861899389492", "units": "deg", "sigma": "2.6312E-5", "name": "i"}, {"sigma": "6.7915E-5", "name": "om", "value": "264.3658005466229", "title": "longitude of the ascending node", "units": "deg", "label": "node"}, {"sigma": ".00011628", "name": "w", "units": "deg", "title": "argument of perihelion", "value": "87.42695639948589", "label": "peri"}, {"label": "M", "sigma": ".00066462", "name": "ma", "units": "deg", "title": "mean anomaly", "value": "26.62620012596805"}, {"label": "tp", "units": "TDB", "value": "2461173.935915781208", "title": "time of perihelion passage", "name": "tp", "sigma": ".00066166"}, {"label": "period", "value": "359.160160801104", "title": "sidereal orbital period", "units": "d", "sigma": "1.9149E-5", "name": "per"}, {"label": "n", "units": "deg/d", "value": "1.002338341749883", "title": "mean motion", "sigma": "5.3441E-8", "name": "n"}, {"label": "Q", "sigma": "3.5637E-8", "name": "ad", "value": "1.002606276801181", "title": "aphelion distance", "units": "au"}], "epoch": "2461200.5"}